{"type": "FeatureCollection", "features": [ {"type": "Feature", "properties": {"norad_id": 66584, "name": "STARLINK-35939", "group": "last-30-days", "lat": -2.6459704193237816, "lon": 65.22342148598665, "alt_km": 397.8291604165279, "timestamp": "2025-12-21T18:54:57.221447+00:00", "meta": {"OBJECT_NAME": "STARLINK-35939", "OBJECT_ID": "2025-268AD", "EPOCH": "2025-12-21T14:18:44.121600", "MEAN_MOTION": 15.56458965, "ECCENTRICITY": 0.00027995, "INCLINATION": 43.0031, "RA_OF_ASC_NODE": 69.198, "ARG_OF_PERICENTER": 266.5249, "MEAN_ANOMALY": 93.5294, "EPHEMERIS_TYPE": 0, "CLASSIFICATION_TYPE": "U", "NORAD_CAT_ID": 66584, "ELEMENT_SET_NO": 999, "REV_AT_EPOCH": 600, "BSTAR": 0.0017505243, "MEAN_MOTION_DOT": 0.00128939, "MEAN_MOTION_DDOT": 0}, "tle": {"line1": "1 66584U 25268AD  25355.59634400  .00128939  00000+0  17505-2 0  9994", "line2": "2 66584  43.0031  69.1980 0002799 266.5249  93.5294 15.56458965  6008"}}, "geometry": {"type": "Point", "coordinates": [65.22342148598665, -2.6459704193237816]}}, {"type": "Feature", "properties": {"norad_id": 66585, "name": "STARLINK-35963", "group": "last-30-days", "lat": -2.356892250188514, "lon": 65.5351908327163, "alt_km": 403.4929078107998, "timestamp": "2025-12-21T18:54:57.221458+00:00", "meta": {"OBJECT_NAME": "STARLINK-35963", "OBJECT_ID": "2025-268AE", "EPOCH": "2025-12-21T14:00:01.999872", "MEAN_MOTION": 15.55502036, "ECCENTRICITY": 9.63e-05, "INCLINATION": 43.0008, "RA_OF_ASC_NODE": 69.2729, "ARG_OF_PERICENTER": 267.6315, "MEAN_ANOMALY": 21.0806, "EPHEMERIS_TYPE": 0, "CLASSIFICATION_TYPE": "U", "NORAD_CAT_ID": 66585, "ELEMENT_SET_NO": 999, "REV_AT_EPOCH": 608, "BSTAR": -0.033514499, "MEAN_MOTION_DOT": -0.02091691, "MEAN_MOTION_DDOT": 0}, "tle": {"line1": "1 66585U 25268AE  25355.58335648 -.02091691  00000+0 -33514-1 0  9991", "line2": "2 66585  43.0008  69.2729 0000963 267.6315  21.0806 15.55502036  6083"}}, "geometry": {"type": "Point", "coordinates": [65.5351908327163, -2.356892250188514]}}, {"type": "Feature", "properties": {"norad_id": 66586, "name": "TJS-21", "group": "last-30-days", "lat": 50.91559525369492, "lon": -160.26555667465365, "alt_km": 28658.90859734677, "timestamp": "2025-12-21T18:54:57.221471+00:00", "meta": {"OBJECT_NAME": "TJS-21", "OBJECT_ID": "2025-269A", "EPOCH": "2025-12-18T16:58:10.473888", "MEAN_MOTION": 2.00580748, "ECCENTRICITY": 0.6806869, "INCLINATION": 63.2733, "RA_OF_ASC_NODE": 161.7218, "ARG_OF_PERICENTER": 269.7428, "MEAN_ANOMALY": 18.6663, "EPHEMERIS_TYPE": 0, "CLASSIFICATION_TYPE": "U", "NORAD_CAT_ID": 66586, "ELEMENT_SET_NO": 999, "REV_AT_EPOCH": 55, "BSTAR": -0.059507049, "MEAN_MOTION_DOT": 1.084e-05, "MEAN_MOTION_DDOT": 0}, "tle": {"line1": "1 66586U 25269A   25352.70706567  .00001084  00000+0 -59507-1 0  9990", "line2": "2 66586  63.2733 161.7218 6806869 269.7428  18.6663  2.00580748   558"}}, "geometry": {"type": "Point", "coordinates": [-160.26555667465365, 50.91559525369492]}}, {"type": "Feature", "properties": {"norad_id": 66587, "name": "CZ-3B R/B", "group": "last-30-days", "lat": 35.481698372906855, "lon": -157.6714513003839, "alt_km": 39383.95172031448, "timestamp": "2025-12-21T18:54:57.221486+00:00", "meta": {"OBJECT_NAME": "CZ-3B R/B", "OBJECT_ID": "2025-269B", "EPOCH": "2025-12-18T04:21:45.908640", "MEAN_MOTION": 2.0405465, "ECCENTRICITY": 0.75166459, "INCLINATION": 51.3412, "RA_OF_ASC_NODE": 168.3764, "ARG_OF_PERICENTER": 229.6756, "MEAN_ANOMALY": 36.1575, "EPHEMERIS_TYPE": 0, "CLASSIFICATION_TYPE": "U", "NORAD_CAT_ID": 66587, "ELEMENT_SET_NO": 999, "REV_AT_EPOCH": 56, "BSTAR": 0.00058948144, "MEAN_MOTION_DOT": 0.0008861, "MEAN_MOTION_DDOT": -1.447425e-06}, "tle": {"line1": "1 66587U 25269B   25352.18178135  .00088610 -14474-5  58948-3 0  9993", "line2": "2 66587  51.3412 168.3764 7516645 229.6756  36.1575  2.04054650   560"}}, "geometry": {"type": "Point", "coordinates": [-157.6714513003839, 35.481698372906855]}}, {"type": "Feature", "properties": {"norad_id": 66588, "name": "STARLINK-36076", "group": "last-30-days", "lat": -25.5392581547338, "lon": -8.51375420058131, "alt_km": 445.2731823439508, "timestamp": "2025-12-21T18:54:57.221499+00:00", "meta": {"OBJECT_NAME": "STARLINK-36076", "OBJECT_ID": "2025-270A", "EPOCH": "2025-12-20T18:37:52.441824", "MEAN_MOTION": 15.40705129, "ECCENTRICITY": 0.00022885, "INCLINATION": 42.9999, "RA_OF_ASC_NODE": 146.471, "ARG_OF_PERICENTER": 264.7414, "MEAN_ANOMALY": 95.3181, "EPHEMERIS_TYPE": 0, "CLASSIFICATION_TYPE": "U", "NORAD_CAT_ID": 66588, "ELEMENT_SET_NO": 999, "REV_AT_EPOCH": 558, "BSTAR": 0.00080388566, "MEAN_MOTION_DOT": 0.00033431, "MEAN_MOTION_DDOT": 0}, "tle": {"line1": "1 66588U 25270A   25354.77630141  .00033431  00000+0  80389-3 0  9991", "line2": "2 66588  42.9999 146.4710 0002288 264.7414  95.3181 15.40705129  5587"}}, "geometry": {"type": "Point", "coordinates": [-8.51375420058131, -25.5392581547338]}}, {"type": "Feature", "properties": {"norad_id": 66589, "name": "STARLINK-35447", "group": "last-30-days", "lat": -26.84962171145183, "lon": 107.49560786037704, "alt_km": 445.6480242536736, "timestamp": "2025-12-21T18:54:57.221512+00:00", "meta": {"OBJECT_NAME": "STARLINK-35447", "OBJECT_ID": "2025-270B", "EPOCH": "2025-12-21T14:25:39.527616", "MEAN_MOTION": 15.40709899, "ECCENTRICITY": 0.00016673, "INCLINATION": 43.0006, "RA_OF_ASC_NODE": 141.4775, "ARG_OF_PERICENTER": 275.1087, "MEAN_ANOMALY": 84.9579, "EPHEMERIS_TYPE": 0, "CLASSIFICATION_TYPE": "U", "NORAD_CAT_ID": 66589, "ELEMENT_SET_NO": 999, "REV_AT_EPOCH": 582, "BSTAR": 0.000374611, "MEAN_MOTION_DOT": 0.00015381, "MEAN_MOTION_DDOT": 0}, "tle": {"line1": "1 66589U 25270B   25355.60115194  .00015381  00000+0  37461-3 0  9998", "line2": "2 66589  43.0006 141.4775 0001667 275.1087  84.9579 15.40709899  5827"}}, "geometry": {"type": "Point", "coordinates": [107.49560786037704, -26.84962171145183]}}, {"type": "Feature", "properties": {"norad_id": 66590, "name": "STARLINK-35429", "group": "last-30-days", "lat": 29.135484688045775, "lon": 176.92897147298967, "alt_km": 440.17351426455843, "timestamp": "2025-12-21T18:54:57.221523+00:00", "meta": {"OBJECT_NAME": "STARLINK-35429", "OBJECT_ID": "2025-270C", "EPOCH": "2025-12-21T14:00:01.999872", "MEAN_MOTION": 15.40687039, "ECCENTRICITY": 0.00014855, "INCLINATION": 43.0002, "RA_OF_ASC_NODE": 141.371, "ARG_OF_PERICENTER": 268.0739, "MEAN_ANOMALY": 80.2451, "EPHEMERIS_TYPE": 0, "CLASSIFICATION_TYPE": "U", "NORAD_CAT_ID": 66590, "ELEMENT_SET_NO": 999, "REV_AT_EPOCH": 592, "BSTAR": 0.00015805292, "MEAN_MOTION_DOT": 6.301e-05, "MEAN_MOTION_DDOT": 0}, "tle": {"line1": "1 66590U 25270C   25355.58335648  .00006301  00000+0  15805-3 0  9995", "line2": "2 66590  43.0002 141.3710 0001485 268.0739  80.2451 15.40687039  5926"}}, "geometry": {"type": "Point", "coordinates": [176.92897147298967, 29.135484688045775]}}, {"type": "Feature", "properties": {"norad_id": 66591, "name": "STARLINK-36058", "group": "last-30-days", "lat": 30.092296622653766, "lon": -78.47549080659945, "alt_km": 440.2622845177111, "timestamp": "2025-12-21T18:54:57.221533+00:00", "meta": {"OBJECT_NAME": "STARLINK-36058", "OBJECT_ID": "2025-270D", "EPOCH": "2025-12-21T14:00:01.999872", "MEAN_MOTION": 15.40692819, "ECCENTRICITY": 0.00014729, "INCLINATION": 42.9996, "RA_OF_ASC_NODE": 141.1591, "ARG_OF_PERICENTER": 303.2624, "MEAN_ANOMALY": 132.0328, "EPHEMERIS_TYPE": 0, "CLASSIFICATION_TYPE": "U", "NORAD_CAT_ID": 66591, "ELEMENT_SET_NO": 999, "REV_AT_EPOCH": 582, "BSTAR": 0.0002063737, "MEAN_MOTION_DOT": 8.325e-05, "MEAN_MOTION_DDOT": 0}, "tle": {"line1": "1 66591U 25270D   25355.58335648  .00008325  00000+0  20637-3 0  9993", "line2": "2 66591  42.9996 141.1591 0001472 303.2624 132.0328 15.40692819  5823"}}, "geometry": {"type": "Point", "coordinates": [-78.47549080659945, 30.092296622653766]}}, {"type": "Feature", "properties": {"norad_id": 66592, "name": "STARLINK-36066", "group": "last-30-days", "lat": -42.97506873128823, "lon": 49.307531579891986, "alt_km": 445.6445509261639, "timestamp": "2025-12-21T18:54:57.221543+00:00", "meta": {"OBJECT_NAME": "STARLINK-36066", "OBJECT_ID": "2025-270E", "EPOCH": "2025-12-20T19:58:19.508736", "MEAN_MOTION": 15.40756255, "ECCENTRICITY": 0.00020419, "INCLINATION": 43.0017, "RA_OF_ASC_NODE": 146.0271, "ARG_OF_PERICENTER": 265.6058, "MEAN_ANOMALY": 94.4565, "EPHEMERIS_TYPE": 0, "CLASSIFICATION_TYPE": "U", "NORAD_CAT_ID": 66592, "ELEMENT_SET_NO": 999, "REV_AT_EPOCH": 549, "BSTAR": 0.00093716384, "MEAN_MOTION_DOT": 0.00039119, "MEAN_MOTION_DDOT": 0}, "tle": {"line1": "1 66592U 25270E   25354.83217024  .00039119  00000+0  93716-3 0  9991", "line2": "2 66592  43.0017 146.0271 0002041 265.6058  94.4565 15.40756255  5496"}}, "geometry": {"type": "Point", "coordinates": [49.307531579891986, -42.97506873128823]}}, {"type": "Feature", "properties": {"norad_id": 66593, "name": "STARLINK-36031", "group": "last-30-days", "lat": -2.8336560582478825, "lon": 137.26327479697318, "alt_km": 443.85986183764817, "timestamp": "2025-12-21T18:54:57.221553+00:00", "meta": {"OBJECT_NAME": "STARLINK-36031", "OBJECT_ID": "2025-270F", "EPOCH": "2025-12-21T11:09:16.721568", "MEAN_MOTION": 15.40726951, "ECCENTRICITY": 0.00011735, "INCLINATION": 42.9983, "RA_OF_ASC_NODE": 142.1724, "ARG_OF_PERICENTER": 275.4783, "MEAN_ANOMALY": 84.5939, "EPHEMERIS_TYPE": 0, "CLASSIFICATION_TYPE": "U", "NORAD_CAT_ID": 66593, "ELEMENT_SET_NO": 999, "REV_AT_EPOCH": 569, "BSTAR": 0.00095859369, "MEAN_MOTION_DOT": 0.00039985, "MEAN_MOTION_DDOT": 0}, "tle": {"line1": "1 66593U 25270F   25355.46477687  .00039985  00000+0  95859-3 0  9996", "line2": "2 66593  42.9983 142.1724 0001173 275.4783  84.5939 15.40726951  5693"}}, "geometry": {"type": "Point", "coordinates": [137.26327479697318, -2.8336560582478825]}}]}